[{"OBJECT_NAME":"ONEWEB-0249","OBJECT_ID":"2021-060A","EPOCH":"2025-11-21T06:38:01.684896","MEAN_MOTION":13.1659317,"ECCENTRICITY":0.0002027,"INCLINATION":87.9022,"RA_OF_ASC_NODE":270.182,"ARG_OF_PERICENTER":79.0794,"MEAN_ANOMALY":281.0565,"EPHEMERIS_TYPE":0,"CLASSIFICATION_TYPE":"U","NORAD_CAT_ID":48967,"ELEMENT_SET_NO":999,"REV_AT_EPOCH":21225,"BSTAR":2.6836e-5,"MEAN_MOTION_DOT":2.3e-7,"MEAN_MOTION_DDOT":0},{"OBJECT_NAME":"ONEWEB-0250","OBJECT_ID":"2021-060B","EPOCH":"2025-11-21T09:25:35.657184","MEAN_MOTION":13.25819082,"ECCENTRICITY":0.0002357,"INCLINATION":87.9017,"RA_OF_ASC_NODE":268.5948,"ARG_OF_PERICENTER":53.8408,"MEAN_ANOMALY":306.2946,"EPHEMERIS_TYPE":0,"CLASSIFICATION_TYPE":"U","NORAD_CAT_ID":48968,"ELEMENT_SET_NO":999,"REV_AT_EPOCH":21268,"BSTAR":0.00032243,"MEAN_MOTION_DOT":1.55e-6,"MEAN_MOTION_DDOT":0},{"OBJECT_NAME":"ONEWEB-0252","OBJECT_ID":"2021-060D","EPOCH":"2025-11-21T09:13:04.708992","MEAN_MOTION":13.16594994,"ECCENTRICITY":0.0001911,"INCLINATION":87.9021,"RA_OF_ASC_NODE":270.1541,"ARG_OF_PERICENTER":86.8046,"MEAN_ANOMALY":273.3304,"EPHEMERIS_TYPE":0,"CLASSIFICATION_TYPE":"U","NORAD_CAT_ID":48970,"ELEMENT_SET_NO":999,"REV_AT_EPOCH":21231,"BSTAR":0.00043537,"MEAN_MOTION_DOT":1.79e-6,"MEAN_MOTION_DDOT":0},{"OBJECT_NAME":"ONEWEB-0253","OBJECT_ID":"2021-060E","EPOCH":"2025-11-21T08:57:07.291584","MEAN_MOTION":13.16595093,"ECCENTRICITY":0.0002063,"INCLINATION":87.9021,"RA_OF_ASC_NODE":270.1605,"ARG_OF_PERICENTER":81.0648,"MEAN_ANOMALY":279.0717,"EPHEMERIS_TYPE":0,"CLASSIFICATION_TYPE":"U","NORAD_CAT_ID":48971,"ELEMENT_SET_NO":999,"REV_AT_EPOCH":21224,"BSTAR":0.00016869,"MEAN_MOTION_DOT":7.7e-7,"MEAN_MOTION_DDOT":0},{"OBJECT_NAME":"ONEWEB-0254","OBJECT_ID":"2021-060F","EPOCH":"2025-11-21T09:10:48.222048","MEAN_MOTION":13.1659504,"ECCENTRICITY":0.0002228,"INCLINATION":87.9029,"RA_OF_ASC_NODE":270.149,"ARG_OF_PERICENTER":76.5737,"MEAN_ANOMALY":283.5642,"EPHEMERIS_TYPE":0,"CLASSIFICATION_TYPE":"U","NORAD_CAT_ID":48972,"ELEMENT_SET_NO":999,"REV_AT_EPOCH":21224,"BSTAR":0.00033397,"MEAN_MOTION_DOT":1.41e-6,"MEAN_MOTION_DDOT":0},{"OBJECT_NAME":"ONEWEB-0255","OBJECT_ID":"2021-060G","EPOCH":"2025-11-21T06:26:37.860000","MEAN_MOTION":13.16593232,"ECCENTRICITY":0.0002078,"INCLINATION":87.9012,"RA_OF_ASC_NODE":270.1899,"ARG_OF_PERICENTER":78.1026,"MEAN_ANOMALY":282.0338,"EPHEMERIS_TYPE":0,"CLASSIFICATION_TYPE":"U","NORAD_CAT_ID":48973,"ELEMENT_SET_NO":999,"REV_AT_EPOCH":21230,"BSTAR":-5.975e-5,"MEAN_MOTION_DOT":-1.0e-7,"MEAN_MOTION_DDOT":0},{"OBJECT_NAME":"ONEWEB-0256","OBJECT_ID":"2021-060H","EPOCH":"2025-11-21T08:53:40.913088","MEAN_MOTION":13.16592678,"ECCENTRICITY":0.0001764,"INCLINATION":87.9011,"RA_OF_ASC_NODE":270.1789,"ARG_OF_PERICENTER":81.5437,"MEAN_ANOMALY":278.5894,"EPHEMERIS_TYPE":0,"CLASSIFICATION_TYPE":"U","NORAD_CAT_ID":48974,"ELEMENT_SET_NO":999,"REV_AT_EPOCH":21228,"BSTAR":0.00033017,"MEAN_MOTION_DOT":1.39e-6,"MEAN_MOTION_DDOT":0},{"OBJECT_NAME":"ONEWEB-0257","OBJECT_ID":"2021-060J","EPOCH":"2025-11-21T09:40:25.217760","MEAN_MOTION":13.16593483,"ECCENTRICITY":0.0002037,"INCLINATION":87.9025,"RA_OF_ASC_NODE":270.1485,"ARG_OF_PERICENTER":80.9328,"MEAN_ANOMALY":279.2033,"EPHEMERIS_TYPE":0,"CLASSIFICATION_TYPE":"U","NORAD_CAT_ID":48975,"ELEMENT_SET_NO":999,"REV_AT_EPOCH":21224,"BSTAR":3.6245e-5,"MEAN_MOTION_DOT":2.7e-7,"MEAN_MOTION_DDOT":0},{"OBJECT_NAME":"ONEWEB-0258","OBJECT_ID":"2021-060K","EPOCH":"2025-11-21T09:42:42.209280","MEAN_MOTION":13.16593539,"ECCENTRICITY":0.0001855,"INCLINATION":87.9016,"RA_OF_ASC_NODE":270.1649,"ARG_OF_PERICENTER":75.1171,"MEAN_ANOMALY":285.0165,"EPHEMERIS_TYPE":0,"CLASSIFICATION_TYPE":"U","NORAD_CAT_ID":48976,"ELEMENT_SET_NO":999,"REV_AT_EPOCH":21225,"BSTAR":1.6715e-5,"MEAN_MOTION_DOT":1.9e-7,"MEAN_MOTION_DDOT":0},{"OBJECT_NAME":"ONEWEB-0259","OBJECT_ID":"2021-060L","EPOCH":"2025-11-21T09:33:34.816032","MEAN_MOTION":13.16593195,"ECCENTRICITY":0.0002039,"INCLINATION":87.9027,"RA_OF_ASC_NODE":270.1586,"ARG_OF_PERICENTER":77.6263,"MEAN_ANOMALY":282.5096,"EPHEMERIS_TYPE":0,"CLASSIFICATION_TYPE":"U","NORAD_CAT_ID":48977,"ELEMENT_SET_NO":999,"REV_AT_EPOCH":21228,"BSTAR":0.00014594,"MEAN_MOTION_DOT":6.9e-7,"MEAN_MOTION_DDOT":0},{"OBJECT_NAME":"ONEWEB-0260","OBJECT_ID":"2021-060M","EPOCH":"2025-11-21T09:21:02.170080","MEAN_MOTION":13.16592477,"ECCENTRICITY":0.0001733,"INCLINATION":87.9014,"RA_OF_ASC_NODE":270.1766,"ARG_OF_PERICENTER":91.5103,"MEAN_ANOMALY":268.6226,"EPHEMERIS_TYPE":0,"CLASSIFICATION_TYPE":"U","NORAD_CAT_ID":48978,"ELEMENT_SET_NO":999,"REV_AT_EPOCH":21226,"BSTAR":0.00025141,"MEAN_MOTION_DOT":1.09e-6,"MEAN_MOTION_DDOT":0},{"OBJECT_NAME":"ONEWEB-0261","OBJECT_ID":"2021-060N","EPOCH":"2025-11-21T06:48:18.060768","MEAN_MOTION":13.16595997,"ECCENTRICITY":0.0002279,"INCLINATION":87.9011,"RA_OF_ASC_NODE":270.1996,"ARG_OF_PERICENTER":84.9743,"MEAN_ANOMALY":275.1648,"EPHEMERIS_TYPE":0,"CLASSIFICATION_TYPE":"U","NORAD_CAT_ID":48979,"ELEMENT_SET_NO":999,"REV_AT_EPOCH":21230,"BSTAR":-7.0145e-5,"MEAN_MOTION_DOT":-1.4e-7,"MEAN_MOTION_DDOT":0},{"OBJECT_NAME":"ONEWEB-0262","OBJECT_ID":"2021-060P","EPOCH":"2025-11-21T09:58:39.707040","MEAN_MOTION":13.16593367,"ECCENTRICITY":0.0002087,"INCLINATION":87.9024,"RA_OF_ASC_NODE":270.1446,"ARG_OF_PERICENTER":72.0108,"MEAN_ANOMALY":288.125,"EPHEMERIS_TYPE":0,"CLASSIFICATION_TYPE":"U","NORAD_CAT_ID":48980,"ELEMENT_SET_NO":999,"REV_AT_EPOCH":21228,"BSTAR":0.0001319,"MEAN_MOTION_DOT":6.3e-7,"MEAN_MOTION_DDOT":0},{"OBJECT_NAME":"ONEWEB-0263","OBJECT_ID":"2021-060Q","EPOCH":"2025-11-21T08:54:49.792032","MEAN_MOTION":13.16593548,"ECCENTRICITY":0.0002272,"INCLINATION":87.9015,"RA_OF_ASC_NODE":270.1691,"ARG_OF_PERICENTER":81.4623,"MEAN_ANOMALY":278.6765,"EPHEMERIS_TYPE":0,"CLASSIFICATION_TYPE":"U","NORAD_CAT_ID":48981,"ELEMENT_SET_NO":999,"REV_AT_EPOCH":21224,"BSTAR":0.00023774,"MEAN_MOTION_DOT":1.04e-6,"MEAN_MOTION_DDOT":0},{"OBJECT_NAME":"ONEWEB-0264","OBJECT_ID":"2021-060R","EPOCH":"2025-11-21T09:48:25.172352","MEAN_MOTION":13.16595746,"ECCENTRICITY":0.0001993,"INCLINATION":87.9014,"RA_OF_ASC_NODE":270.1658,"ARG_OF_PERICENTER":85.3332,"MEAN_ANOMALY":274.8027,"EPHEMERIS_TYPE":0,"CLASSIFICATION_TYPE":"U","NORAD_CAT_ID":48982,"ELEMENT_SET_NO":999,"REV_AT_EPOCH":21225,"BSTAR":-1.4179e-5,"MEAN_MOTION_DOT":7.0e-8,"MEAN_MOTION_DDOT":0},{"OBJECT_NAME":"ONEWEB-0266","OBJECT_ID":"2021-060T","EPOCH":"2025-11-21T06:40:19.066944","MEAN_MOTION":13.16593422,"ECCENTRICITY":0.0001882,"INCLINATION":87.9023,"RA_OF_ASC_NODE":270.1757,"ARG_OF_PERICENTER":73.544,"MEAN_ANOMALY":286.5897,"EPHEMERIS_TYPE":0,"CLASSIFICATION_TYPE":"U","NORAD_CAT_ID":48984,"ELEMENT_SET_NO":999,"REV_AT_EPOCH":21222,"BSTAR":4.2335e-5,"MEAN_MOTION_DOT":2.9e-7,"MEAN_MOTION_DDOT":0},{"OBJECT_NAME":"ONEWEB-0267","OBJECT_ID":"2021-060U","EPOCH":"2025-11-21T08:45:43.326720","MEAN_MOTION":13.16595239,"ECCENTRICITY":0.000209,"INCLINATION":87.9018,"RA_OF_ASC_NODE":270.1583,"ARG_OF_PERICENTER":83.1989,"MEAN_ANOMALY":276.9379,"EPHEMERIS_TYPE":0,"CLASSIFICATION_TYPE":"U","NORAD_CAT_ID":48985,"ELEMENT_SET_NO":999,"REV_AT_EPOCH":21224,"BSTAR":0.00027951,"MEAN_MOTION_DOT":1.2e-6,"MEAN_MOTION_DDOT":0},{"OBJECT_NAME":"ONEWEB-0268","OBJECT_ID":"2021-060V","EPOCH":"2025-11-21T09:49:32.977344","MEAN_MOTION":13.16593948,"ECCENTRICITY":0.000188,"INCLINATION":87.9023,"RA_OF_ASC_NODE":270.1574,"ARG_OF_PERICENTER":80.7346,"MEAN_ANOMALY":279.3998,"EPHEMERIS_TYPE":0,"CLASSIFICATION_TYPE":"U","NORAD_CAT_ID":48986,"ELEMENT_SET_NO":999,"REV_AT_EPOCH":21251,"BSTAR":2.4856e-5,"MEAN_MOTION_DOT":2.2e-7,"MEAN_MOTION_DDOT":0},{"OBJECT_NAME":"ONEWEB-0269","OBJECT_ID":"2021-060W","EPOCH":"2025-11-21T09:22:11.985600","MEAN_MOTION":13.1659447,"ECCENTRICITY":0.0001679,"INCLINATION":87.9014,"RA_OF_ASC_NODE":270.1853,"ARG_OF_PERICENTER":81.8765,"MEAN_ANOMALY":278.2556,"EPHEMERIS_TYPE":0,"CLASSIFICATION_TYPE":"U","NORAD_CAT_ID":48987,"ELEMENT_SET_NO":999,"REV_AT_EPOCH":21228,"BSTAR":8.1688e-5,"MEAN_MOTION_DOT":4.4e-7,"MEAN_MOTION_DDOT":0},{"OBJECT_NAME":"ONEWEB-0270","OBJECT_ID":"2021-060X","EPOCH":"2025-11-21T09:47:16.808352","MEAN_MOTION":13.16594277,"ECCENTRICITY":0.0002328,"INCLINATION":87.9022,"RA_OF_ASC_NODE":270.1596,"ARG_OF_PERICENTER":76.6797,"MEAN_ANOMALY":283.4594,"EPHEMERIS_TYPE":0,"CLASSIFICATION_TYPE":"U","NORAD_CAT_ID":48988,"ELEMENT_SET_NO":999,"REV_AT_EPOCH":21232,"BSTAR":0.00010609,"MEAN_MOTION_DOT":5.3e-7,"MEAN_MOTION_DDOT":0},{"OBJECT_NAME":"ONEWEB-0271","OBJECT_ID":"2021-060Y","EPOCH":"2025-11-21T07:39:35.665056","MEAN_MOTION":13.16593637,"ECCENTRICITY":0.0002097,"INCLINATION":87.9033,"RA_OF_ASC_NODE":270.1646,"ARG_OF_PERICENTER":81.5192,"MEAN_ANOMALY":278.6177,"EPHEMERIS_TYPE":0,"CLASSIFICATION_TYPE":"U","NORAD_CAT_ID":48989,"ELEMENT_SET_NO":999,"REV_AT_EPOCH":21231,"BSTAR":0.00022557,"MEAN_MOTION_DOT":9.9e-7,"MEAN_MOTION_DDOT":0},{"OBJECT_NAME":"ONEWEB-0272","OBJECT_ID":"2021-060Z","EPOCH":"2025-11-21T06:22:04.168992","MEAN_MOTION":13.16593585,"ECCENTRICITY":0.0002019,"INCLINATION":87.9015,"RA_OF_ASC_NODE":270.1941,"ARG_OF_PERICENTER":85.2288,"MEAN_ANOMALY":274.9074,"EPHEMERIS_TYPE":0,"CLASSIFICATION_TYPE":"U","NORAD_CAT_ID":48990,"ELEMENT_SET_NO":999,"REV_AT_EPOCH":21225,"BSTAR":2.9164e-5,"MEAN_MOTION_DOT":2.4e-7,"MEAN_MOTION_DDOT":0},{"OBJECT_NAME":"ONEWEB-0273","OBJECT_ID":"2021-060AA","EPOCH":"2025-11-21T08:43:26.567616","MEAN_MOTION":13.16593999,"ECCENTRICITY":0.0002063,"INCLINATION":87.9022,"RA_OF_ASC_NODE":270.1681,"ARG_OF_PERICENTER":78.4149,"MEAN_ANOMALY":281.7213,"EPHEMERIS_TYPE":0,"CLASSIFICATION_TYPE":"U","NORAD_CAT_ID":48991,"ELEMENT_SET_NO":999,"REV_AT_EPOCH":21224,"BSTAR":0.00010044,"MEAN_MOTION_DOT":5.1e-7,"MEAN_MOTION_DDOT":0},{"OBJECT_NAME":"ONEWEB-0274","OBJECT_ID":"2021-060AB","EPOCH":"2025-11-21T09:19:54.037632","MEAN_MOTION":13.16592975,"ECCENTRICITY":0.0001845,"INCLINATION":87.9012,"RA_OF_ASC_NODE":270.188,"ARG_OF_PERICENTER":90.5496,"MEAN_ANOMALY":269.5846,"EPHEMERIS_TYPE":0,"CLASSIFICATION_TYPE":"U","NORAD_CAT_ID":48992,"ELEMENT_SET_NO":999,"REV_AT_EPOCH":21228,"BSTAR":0.00012899,"MEAN_MOTION_DOT":6.2e-7,"MEAN_MOTION_DDOT":0}]
